#dP2021  7 15  0  0  0.00000000      96 __u+U ITR00 FIT  IAC
## 2166 345600.00000000   900.00000000 59410 0.0000000000000
+  117   C06C07C08C09C10C11C12C13C14C16C19C20C21C22C23C24C25
+        C26C27C28C29C30C32C33C34C35C36C37C38C39C40C41C42C43
+        C44C45C46E01E02E03E04E05E07E08E09E11E12E13E14E15E18
+        E19E21E24E25E26E27E30E31E33E36G01G02G03G04G05G06G07
+        G08G09G10G11G12G13G14G15G16G17G18G19G20G21G22G23G24
+        G25G26G27G28G29G30G31G32J01J02J03R01R02R03R04R05R07
+        R08R09R11R12R13R14R15R16R17R18R19R20R21R22R24  0  0
++         6  0 10  6  8  7  6  9  7  7  5  6  6  6  8  7  7
++         7  6  6  6  6  7  6  6  6  7  7  8  9  8  7  8  6
++         7  7  6  6  7  7  5  6  6  5  5  6  7  6  7  6  6
++         5  6  6  6  6  5  6  6  5  6  4  6  5  6  7  6  6
++         6  6  6  6  5  6  7  6  5  7  6  6  5  5  6  5  5
++         6  6  5  6  6  5  5  5  8  7  7  8  7  6  7  6  6
++         5  8  0  6  7  6  6  7  8  7  6  6  7  7  5  0  0
%c M  cc GPS ccc cccc cccc cccc cccc ccccc ccccc ccccc ccccc
%c cc cc ccc ccc cccc cccc cccc cccc ccccc ccccc ccccc ccccc
%f  0.0000000  0.000000000  0.00000000000  0.000000000000000
%f  0.0000000  0.000000000  0.00000000000  0.000000000000000
%i    0    0    0    0      0      0      0      0         0
%i    0    0    0    0      0      0      0      0         0
/* INFORMATION & ANALYSIS CENTER (IAC)      ULTRA-RAPID DATA
/* S/V CLOCKS ARE ALIGNED TO GNSS TIME                      
/* G:C1WC2W R:C1PC2P E:C1XC5X C:C2IC6I J:C1CC2S             
/* PCV:IGS14_2163 OL/AL:FES2004  NONE     YN ORB:CoN CLK:CoN
*  2021 07 15 21 45  0.00000000
PC06 -13277.151576  38437.977161  -9651.685297    629.181724
PC07      0.000000      0.000000      0.000000 999999.999999
PC08 -24363.524769  25046.141481 -23746.641695   -904.980756
PC09  -4923.656062  41382.397150   4922.504970    371.347909
PC10   4015.652021  30731.284510  29003.013964    -18.436842
PC11  11413.700841  13034.846865 -21832.474292    459.726805
PC12    278.285164  26085.111384  -9919.448453    810.629811
PC13 -11207.663197  26385.002884 -30923.031456    337.907242
PC14  21771.497078  17226.624607   3165.751222    803.766026
PC16 -11798.039243  39476.522822  -8287.914164   -916.307059
PC19 -23049.569479  -9987.987257 -12103.993012    910.353460
PC20 -17843.892114 -20929.153807   4627.715358   -844.146924
PC21   1671.314923  19932.286583 -19453.527649   -935.748492
PC22 -15037.956638   7137.521258 -22390.502358   -948.364881
PC23  24445.865005 -11914.924523  -6254.970298   -969.361526
PC24  11232.797237  13070.473215  21945.663850   -940.950062
PC25  25783.800045   -360.528080  10644.831804   -885.337407
PC26  -7862.233462  17661.336136  20132.417925    878.288377
PC27   6087.237586 -27222.811150    991.155865    564.945678
PC28  15390.539788 -17317.215990 -15552.309917    -50.190620
PC29 -15765.811197  -2127.527277  22915.647468    419.986638
PC30  -7234.328067 -21291.272587  16527.675152    474.186551
PC32  -1733.719107 -19899.405824  19495.534208   -924.784592
PC33  23148.286655   9917.789045  12052.902316   -943.495495
PC34   7727.616491  20692.461555 -17056.402517   -627.294920
PC35 -14929.164905  17487.067087  15782.064085   -185.568680
PC36 -25657.642143   -480.571412 -10929.286118   -733.231566
PC37   9231.655280 -17446.282380 -19697.047499   -864.901359
PC38 -21899.771101  27054.709415 -23885.338513    161.966904
PC39  -8757.332554  40400.815572  -7868.779357     32.419112
PC40   -399.669052  26525.576500  32846.954722    180.875986
PC41  15321.424669  -6919.354538  22322.276258   -960.535836
PC42  17428.050400  21145.355137  -5297.051018   -919.966822
PC43  15757.337217   2837.458821 -22867.752619   -822.969004
PC44  -5245.953121  27379.768579   -837.504550    291.239937
PC45 -24355.266566  12025.290585   6449.387149    494.435733
PC46 -12382.572449 -12374.549655 -21725.717802    177.384481
PE01   7673.385869  17192.007806  22847.333436  -1150.851938
PE02  -7838.919341 -17183.859421 -22789.418752    233.156256
PE03  -7539.195668 -28438.272716   3174.387069   -453.046832
PE04  17486.415376  18978.330452  14513.643072   -814.088297
PE05   6995.719953 -21346.959011  19278.464327   -264.925660
PE07 -17271.398263   1915.041330 -23952.004864   -562.089261
PE08 -17575.770642 -18622.762796 -14829.316333   5969.783726
PE09  17089.006139  -2123.542977  24084.588906   5599.255877
PE11  22713.457287 -11313.024903 -15266.480443   5715.024349
PE12  14191.860813   8186.862885 -24660.658222   5109.335155
PE13 -22587.714546  11026.649534  15627.806947    419.065645
PE14  15401.274033 -16174.469702 -20446.546120  -1501.485528
PE15 -14168.071917  -8072.568226  24702.316284    803.304611
PE18  -4326.928238  25842.169401   7661.060780  -1645.616392
PE19   5956.924443  28495.835648  -5352.312991    327.739136
PE21 -13628.479298  13058.170542  22804.877564   -676.436159
PE24  28266.297064   -484.651423  -8750.514404  -1009.804981
PE25  13852.594271 -12953.778163 -22715.804945   -540.110575
PE26 -17269.208811  23791.275466  -3483.777452   1575.221647
PE27 -27986.308793   1212.237163   9577.098554    -76.436899
PE30 -25131.788441 -11935.610299 -10119.381735   2781.221392
PE31  25779.625882  11274.687293   9208.372850   -483.293444
PE33  -2569.080749  22369.564277 -19213.979133   -467.640785
PE36  17698.115784 -23584.908037   2613.270402   -234.913550
PG01 -10133.934932  20018.729204 -14206.679506    627.186139
PG02  21584.888636 -13433.926222  -7139.838836   -619.816371
PG03  -2298.926557  15127.262962 -21810.562472   -221.736924
PG04  -1451.555546  25673.835772  -6513.634932   -202.417569
PG05  15278.833341  -9293.730392  19535.632225    -48.021965
PG06  20671.087312  -2571.402893 -16455.538549     40.641466
PG07   4701.663776  15617.310389  21244.667918    203.195537
PG08  -7565.072382  19824.669774  15766.585972    -28.930413
PG09   7494.425709  25089.437893   4321.889713   -355.591277
PG10 -23597.536338 -11918.804214   3919.495327   -162.740680
PG11  23356.263447 -10113.248099  -7605.592810     16.434272
PG12   3947.805805 -14706.517662 -22022.464637    -69.116683
PG13  13009.062483 -12476.132986  19324.099939    158.168027
PG14  23144.944697  12654.169280   3299.319832     46.529700
PG15   5631.844272 -20887.264539  14804.308494   -135.285497
PG16 -20598.910829   2428.769281  16602.501981   -357.679099
PG17  12470.191881  16489.996800 -16243.703156    474.324638
PG18  -6660.924957 -13725.652177  21721.261810    340.712417
PG19  14624.277763   7282.729504 -21253.486649     26.770535
PG20  23570.198014  -3266.186430  11426.261813 999999.999999
PG21 -15828.777232  20076.578718  -5417.160732    131.470045
PG22 -10849.197369  12654.363380 -20459.984427   -562.731580
PG23 -16100.305975 -15942.165996  13883.830843     84.126246
PG24  12747.536398 -21238.580026  -9270.353228    175.426246
PG25  -8893.021219 -17261.101751 -18501.386977    174.110397
PG26 -25534.460974  -3080.129222   7116.689218    110.993266
PG27 -12831.111863   9610.950118  20923.460942   -163.417361
PG28  24172.936140  10409.226809  -2144.116605    537.257871
PG29  -4243.119296 -25990.869826   3144.819420   -380.733831
PG30  15986.911726   6557.484484  20294.735501   -451.173514
PG31 -22021.465235   3674.913263 -14818.644055   -128.827651
PG32 -14801.058464 -13044.426609 -17748.146465     13.873185
PJ01 -20919.732266  20492.026738 -25772.042979   -416.457173
PJ02 -30231.531970  22160.405272  24178.058532     -0.810002
PJ03 -29032.710870  28142.502467  17235.915117     -0.197284
PR01  -3320.637385  12877.872128 -21767.484431     82.360428
PR02  11443.641737  21576.327015  -7215.367709    486.188160
PR03  17442.997718  15552.599162  10207.900877     39.565330
PR04  13378.367025   1066.723003  21719.393345     95.935177
PR05   1994.180148 -14109.600100  21174.198091     75.400922
PR07 -17455.886776 -15238.085201 -10676.193932    -42.023227
PR08 -13435.785054   -979.345733 -21608.449221    -59.964821
PR09  -6076.477847 -10393.656841 -22458.404329      3.089690
PR11      0.000000      0.000000      0.000000 999999.999999
PR12 -13340.304837  10657.436785  18987.371915    245.598735
PR13   5298.041674  10280.868609  22725.623516    -57.752719
PR14  21689.968259   3746.204970  12925.631579     66.513367
PR15  24731.755579  -4747.346736  -4052.073675    102.666376
PR16  11863.067320 -11260.523925 -19543.943801    -17.950078
PR17   8513.280164   6694.692311 -23096.397285    441.375353
PR18  13921.421851 -10558.432081 -18598.280886     83.545516
PR19  12837.432535 -21438.106489  -5113.308453   -151.645725
PR20   2991.011535 -20868.199904  14388.913332    -52.540120
PR21  -9062.552425  -5352.741541  23226.879394   -224.146528
PR22 -14014.844787  11336.237240  17983.145602   -122.840940
PR24  -1914.278604  20680.448388 -14813.310314     50.602318
EOF
